IRIDIUM 144             
1 43249U 18030A   25249.97040982  .00000482  00000+0  16495-3 0  9996
2 43249  86.3940  48.7830 0002203  90.2530 269.8918 14.34218370389545
IRIDIUM 149             
1 43250U 18030B   25250.18605758 -.00000002  00000+0 -78081-5 0  9992
2 43250  86.3938  48.6632 0002135  89.9903 270.1537 14.34217256389595
IRIDIUM 157             
1 43251U 18030C   25250.20508445  .00000036  00000+0  57729-5 0  9992
2 43251  86.3942  48.7019 0001963  87.6688 272.4733 14.34217838389571
IRIDIUM 140             
1 43252U 18030D   25249.94503969 -.00000022  00000+0 -14866-4 0  9999
2 43252  86.3939  48.8242 0002140  93.7995 266.3446 14.34217185389594
IRIDIUM 145             
1 43253U 18030E   25250.14165942  .00000089  00000+0  24820-4 0  9991
2 43253  86.3941  48.7145 0002580  89.7646 270.3845 14.34216852389559
IRIDIUM 146             
1 43254U 18030F   25250.19240106  .00000033  00000+0  48221-5 0  9994
2 43254  86.3941  48.7062 0002486  89.0910 271.0571 14.34217467389579
IRIDIUM 148             
1 43255U 18030G   25250.16068617 -.00000045  00000+0 -23026-4 0  9997
2 43255  86.3940  48.7588 0002044  86.9681 273.1748 14.34216887389601
IRIDIUM 142             
1 43256U 18030H   25250.19874410  .00000049  00000+0  10439-4 0  9993
2 43256  86.3937  48.6417 0002617  87.7233 272.4263 14.34217734389578
